ONEWEB-0267             
1 48985U 21060U   24130.43150434  .00000032  00000+0  50685-4 0  9999
2 48985  87.9144  21.7976 0001638  93.6486 266.4832 13.16596140138431
ONEWEB-0268             
1 48986U 21060V   24130.77982807  .00000080  00000+0  17592-3 0  9996
2 48986  87.9147  21.7345 0001663  82.6229 277.5091 13.16593163140037
ONEWEB-0269             
1 48987U 21060W   24130.45683495  .00000123  00000+0  28792-3 0  9995
2 48987  87.9148  21.8230 0001773  76.9143 283.2186 13.16595501138478
ONEWEB-0270             
1 48988U 21060X   24130.62625068  .00000057  00000+0  11575-3 0  9994
2 48988  87.9144  21.7737 0002083  96.9901 263.1467 13.16596801138535
ONEWEB-0271             
1 48989U 21060Y   24130.38560432  .00001186  00000+0  30684-2 0  9996
2 48989  87.9145  21.7978 0001878  95.3896 264.7449 13.16591063138500
ONEWEB-0272             
1 48990U 21060Z   24130.63575157  .00000029  00000+0  41068-4 0  9991
2 48990  87.9147  21.7760 0001746  89.6230 270.5101 13.16592334138484
ONEWEB-0273             
1 48991U 21060AA  24130.73391818  .00000028  00000+0  39762-4 0  9990
2 48991  87.9145  21.7437 0001939  85.4084 274.7268 13.16597773139774
ONEWEB-0274             
1 48992U 21060AB  24130.60725284  .00000119  00000+0  27762-3 0  9992
2 48992  87.9151  21.7801 0001225  85.4654 274.6617 13.16597428138490
